     2.11           N: GPS NAV DATA                         RINEX VERSION / TYPE
teqc  2019Feb25                         20221121 12:23:41UTCPGM / RUN BY / DATE
OSX ker:10.11.6|Core i5|gcc 4.3 -m64|OSX ker:10.10+|=+      COMMENT
    6.5193D-09  2.2352D-08 -5.9605D-08 -1.1921D-07          ION ALPHA
    8.6016D+04  9.8304D+04 -6.5536D+04 -5.2429D+05          ION BETA
    0.000000000000D+00 5.329070518201D-15   589824     1533 DELTA-UTC: A0,A1,T,W
                                                            END OF HEADER
16 09  5 29  0  0  0.0 4.695076495409D-05-3.410605131648D-12 0.000000000000D+00
    6.500000000000D+01-1.045937500000D+02 4.372682139763D-09 2.441374348035D+00
   -5.176290869713D-06 5.366465542465D-03 9.700655937195D-06 5.153559370041D+03
    4.320000000000D+05 7.450580596924D-09-2.470036333511D+00 2.142041921616D-07
    9.685831765543D-01 1.975937500000D+02-3.539777452796D-01-7.928901699153D-09
   -8.071764792832D-11 1.000000000000D+00 1.533000000000D+03 0.000000000000D+00
    2.000000000000D+00 0.000000000000D+00-9.778887033463D-09 6.500000000000D+01
    4.248180000000D+05 4.000000000000D+00
24 09  5 29  0  0  0.0 1.924787648022D-04 2.955857780762D-12 0.000000000000D+00
    4.900000000000D+01 6.218750000000D+00 4.873417283106D-09 2.550177550388D+00
    3.650784492493D-07 6.703667226247D-03 6.405636668205D-06 5.153669992447D+03
    4.320000000000D+05 1.862645149231D-09-3.469818252543D-01 5.401670932770D-08
    9.508286073366D-01 2.530312500000D+02-6.507458378790D-01-8.104980462112D-09
   -2.846547141543D-10 1.000000000000D+00 1.533000000000D+03 0.000000000000D+00
    2.800000000000D+00 0.000000000000D+00-1.396983861923D-09 4.900000000000D+01
    4.248180000000D+05 4.000000000000D+00
13 09  5 29  0  0  0.0 2.981927245855D-04 9.094947017729D-13 0.000000000000D+00
    1.600000000000D+01 1.067500000000D+02 3.742298738907D-09 9.296034536923D-01
    5.461275577545D-06 4.134707385674D-03 6.930902600288D-06 5.153706062317D+03
    4.320000000000D+05-3.539025783539D-08 1.754448511137D+00-1.490116119385D-08
    9.946662788373D-01 2.598750000000D+02 1.575299952286D+00-7.908543708304D-09
    3.367997433469D-10 1.000000000000D+00 1.533000000000D+03 0.000000000000D+00
    2.000000000000D+00 0.000000000000D+00-1.117587089539D-08 1.600000000000D+01
    4.248180000000D+05 4.000000000000D+00
25 09  5 29  0  0  0.0 4.357425495982D-04 1.898570189951D-11 0.000000000000D+00
    1.130000000000D+02-1.243750000000D+01 4.680909264374D-09 3.043881282948D+00
   -6.947666406631D-07 1.141703710891D-02 1.776963472366D-06 5.153650392532D+03
    4.320000000000D+05 1.713633537292D-07 2.650092413592D+00 1.490116119385D-07
    9.697988058872D-01 3.478750000000D+02-1.207050459525D+00-8.297131323109D-09
    9.750406143553D-11 1.000000000000D+00 1.533000000000D+03 0.000000000000D+00
    2.800000000000D+00 0.000000000000D+00-7.450580596924D-09 1.130000000000D+02
    4.248180000000D+05 4.000000000000D+00
 6 09  5 29  0  0  0.0 1.408425159752D-04 1.443822839065D-11 0.000000000000D+00
    4.500000000000D+01 7.093750000000D+00 5.185930300527D-09 2.416781448717D+00
    4.675239324570D-07 5.988395423628D-03 9.480863809586D-06 5.153704879761D+03
    4.320000000000D+05 6.146728992462D-08-1.490965273420D+00 1.862645149231D-09
    9.333895734566D-01 1.746562500000D+02-1.358995876753D+00-8.206413258623D-09
    2.707255625206D-10 1.000000000000D+00 1.533000000000D+03 0.000000000000D+00
    2.000000000000D+00 0.000000000000D+00-4.656612873077D-09 4.500000000000D+01
    4.256460000000D+05 4.000000000000D+00
21 09  5 29  0  0  0.0 1.144129782915D-05-2.046363078989D-12 0.000000000000D+00
    7.000000000000D+01 3.437500000000D+00 5.262362055645D-09-2.373355420420D+00
    0.000000000000D+00 1.529980974738D-02 6.211921572685D-06 5.153607679367D+03
    4.320000000000D+05 7.264316082001D-08-3.791231156110D-01-2.272427082062D-07
    9.341717913648D-01 2.455000000000D+02-2.600031484193D+00-8.276773332260D-09
   -7.214586230761D-11 1.000000000000D+00 1.533000000000D+03 0.000000000000D+00
    2.000000000000D+00 0.000000000000D+00-1.210719347000D-08 7.000000000000D+01
    4.257960000000D+05 4.000000000000D+00
10 09  5 29  0  0  0.0-1.668883487582D-05-5.684341886081D-13 0.000000000000D+00
    9.100000000000D+01 2.496875000000D+01 4.344109521027D-09 1.232305177131D+00
    1.395121216774D-06 8.592234225944D-03 1.008622348309D-05 5.153610376358D+03
    4.320000000000D+05-1.676380634308D-07 6.733776808833D-01-4.097819328308D-08
    9.585526743550D-01 1.856250000000D+02 6.272948543772D-01-7.974975046864D-09
   -4.693052627337D-10 1.000000000000D+00 1.533000000000D+03 0.000000000000D+00
    2.800000000000D+00 0.000000000000D+00-2.793967723846D-09 9.100000000000D+01
    4.264560000000D+05 4.000000000000D+00
 7 09  5 29  0  0  0.0 1.806765794754D-05-6.821210263297D-13 0.000000000000D+00
    7.000000000000D+01-3.034375000000D+01 4.786627953696D-09-1.399689171152D+00
   -1.721084117889D-06 2.585859736428D-03 2.274289727211D-06 5.153666994095D+03
    4.320000000000D+05 9.313225746155D-09 2.744569545927D+00-4.284083843231D-08
    9.675984264155D-01 3.405000000000D+02 2.876227749196D+00-8.495353865588D-09
    8.464638300447D-11 1.000000000000D+00 1.533000000000D+03 0.000000000000D+00
    2.000000000000D+00 0.000000000000D+00-1.071020960808D-08 7.000000000000D+01
    4.272660000000D+05 4.000000000000D+00
 3 09  5 29  0  0  0.0 3.992300480604D-04 5.115907697473D-12 0.000000000000D+00
    7.700000000000D+01 2.125000000000D+00 5.459870282656D-09-3.493238883421D-02
    2.477318048477D-07 1.186818210408D-02 9.747222065926D-06 5.153632600784D+03
    4.320000000000D+05-3.911554813385D-08-1.558594132947D+00 1.937150955200D-07
    9.259230224447D-01 1.694687500000D+02 9.008521248841D-01-8.618216126152D-09
    2.925121843066D-10 1.000000000000D+00 1.533000000000D+03 0.000000000000D+00
    2.800000000000D+00 0.000000000000D+00-4.190951585770D-09 7.700000000000D+01
    4.273260000000D+05 4.000000000000D+00
 6 09  5 29  2  0  0.0 1.409458927810D-04 1.432454155292D-11 0.000000000000D+00
    4.600000000000D+01 8.812500000000D+00 5.278791311418D-09-2.816230530986D+00
    5.662441253662D-07 5.989112774841D-03 9.523704648018D-06 5.153703567505D+03
    4.392000000000D+05 3.725290298462D-08-1.491024736651D+00 9.126961231232D-08
    9.333917649078D-01 1.799375000000D+02-1.359001703556D+00-8.198912946205D-09
    3.432285825624D-10 1.000000000000D+00 1.533000000000D+03 0.000000000000D+00
    2.000000000000D+00 0.000000000000D+00-4.656612873077D-09 4.600000000000D+01
    4.320180000000D+05 4.000000000000D+00
25 09  5 29  2  0  0.0 4.358794540167D-04 1.898570189951D-11 0.000000000000D+00
    1.140000000000D+02-1.984375000000D+01 4.527688596404D-09-2.189096549321D+00
   -6.742775440216D-07 1.141601905692D-02 2.006068825722D-06 5.153652202606D+03
    4.392000000000D+05 9.313225746155D-09 2.650032536355D+00 1.732259988785D-07
    9.698000639968D-01 3.435000000000D+02-1.207062906032D+00-8.250700817664D-09
    1.775073938955D-10 1.000000000000D+00 1.533000000000D+03 0.000000000000D+00
    4.000000000000D+00 0.000000000000D+00-7.450580596924D-09 1.140000000000D+02
    4.320180000000D+05 4.000000000000D+00
16 09  5 29  2  0  0.0 4.692608490586D-05-3.410605131648D-12 0.000000000000D+00
    6.800000000000D+01-9.690625000000D+01 4.368039089218D-09-2.791443297629D+00
   -4.975125193596D-06 5.366963800043D-03 9.441748261452D-06 5.153558244705D+03
    4.392000000000D+05-1.098960638046D-07-2.470093431203D+00 5.960464477539D-08
    9.685834193987D-01 2.024375000000D+02-3.540943500910D-01-7.814611224210D-09
    5.357366012941D-12 1.000000000000D+00 1.533000000000D+03 0.000000000000D+00
    2.000000000000D+00 0.000000000000D+00-9.778887033463D-09 6.800000000000D+01
    4.320180000000D+05 4.000000000000D+00
21 09  5 29  2  0  0.0 1.142639666796D-05-2.046363078989D-12 0.000000000000D+00
    9.200000000000D+01 8.843750000000D+00 5.327007605535D-09-1.323223761238D+00
    3.390014171600D-07 1.530022523366D-02 5.625188350678D-06 5.153604810715D+03
    4.392000000000D+05 2.942979335785D-07-3.791823915886D-01-1.918524503708D-07
    9.341710818495D-01 2.549687500000D+02-2.599935809351D+00-8.358562453391D-09
   -1.510777215649D-10 1.000000000000D+00 1.533000000000D+03 0.000000000000D+00
    2.000000000000D+00 0.000000000000D+00-1.210719347000D-08 9.200000000000D+01
    4.320180000000D+05 4.000000000000D+00
13 09  5 29  2  0  0.0 2.981992438436D-04 9.094947017729D-13 0.000000000000D+00
    6.100000000000D+01 1.055000000000D+02 3.555505243922D-09 1.979342553437D+00
    5.450099706650D-06 4.134810296819D-03 6.495043635368D-06 5.153709289551D+03
    4.392000000000D+05 1.229345798492D-07 1.754392023481D+00-3.539025783539D-08
    9.946694679987D-01 2.723437500000D+02 1.575714887056D+00-7.751394305258D-09
    3.439428980308D-10 1.000000000000D+00 1.533000000000D+03 0.000000000000D+00
    2.000000000000D+00 0.000000000000D+00-1.117587089539D-08 6.100000000000D+01
    4.320180000000D+05 4.000000000000D+00
24 09  5 29  2  0  0.0 1.924997195601D-04 2.955857780762D-12 0.000000000000D+00
    5.100000000000D+01 9.937500000000D+00 4.967706924933D-09-2.682809634316D+00
    3.427267074585D-07 6.704165018164D-03 6.360933184624D-06 5.153669059753D+03
    4.392000000000D+05-1.676380634308D-08-3.470401225398D-01 1.154839992523D-07
    9.508263559057D-01 2.532187500000D+02-6.507576860526D-01-8.149268021152D-09
   -3.010839699273D-10 1.000000000000D+00 1.533000000000D+03 0.000000000000D+00
    2.800000000000D+00 0.000000000000D+00-1.396983861923D-09 5.100000000000D+01
    4.320180000000D+05 4.000000000000D+00
